{"type": "FeatureCollection", "features": [ {"type": "Feature", "properties": {"norad_id": 44804, "name": "CARTOSAT-3", "group": "resource", "lat": -48.87453740064486, "lon": 63.41850035090259, "alt_km": 517.6923368824891, "timestamp": "2025-12-21T07:34:34.198235+00:00", "meta": {"OBJECT_NAME": "CARTOSAT-3", "OBJECT_ID": "2019-081A", "EPOCH": "2025-12-20T22:18:31.241664", "MEAN_MOTION": 15.19210768, "ECCENTRICITY": 0.00138868, "INCLINATION": 97.4577, "RA_OF_ASC_NODE": 54.4089, "ARG_OF_PERICENTER": 57.5771, "MEAN_ANOMALY": 302.6805, "EPHEMERIS_TYPE": 0, "CLASSIFICATION_TYPE": "U", "NORAD_CAT_ID": 44804, "ELEMENT_SET_NO": 999, "REV_AT_EPOCH": 33640, "BSTAR": 6.5463609e-05, "MEAN_MOTION_DOT": 1.312e-05, "MEAN_MOTION_DDOT": 0}, "tle": {"line1": "1 44804U 19081A   25354.92952826  .00001312  00000+0  65464-4 0  9996", "line2": "2 44804  97.4577  54.4089 0013886  57.5771 302.6805 15.19210768336409"}}, "geometry": {"type": "Point", "coordinates": [63.41850035090259, -48.87453740064486]}}, {"type": "Feature", "properties": {"norad_id": 44819, "name": "GAOFEN-12 01", "group": "resource", "lat": -52.31843884600605, "lon": 11.610753793338702, "alt_km": 634.7530060166237, "timestamp": "2025-12-21T07:34:34.198244+00:00", "meta": {"OBJECT_NAME": "GAOFEN-12 01", "OBJECT_ID": "2019-082A", "EPOCH": "2025-12-20T22:05:02.376096", "MEAN_MOTION": 14.80666093, "ECCENTRICITY": 0.00018568, "INCLINATION": 97.8124, "RA_OF_ASC_NODE": 0.9864, "ARG_OF_PERICENTER": 193.3668, "MEAN_ANOMALY": 166.7496, "EPHEMERIS_TYPE": 0, "CLASSIFICATION_TYPE": "U", "NORAD_CAT_ID": 44819, "ELEMENT_SET_NO": 999, "REV_AT_EPOCH": 32771, "BSTAR": 5.0464436e-05, "MEAN_MOTION_DOT": 3.37e-06, "MEAN_MOTION_DDOT": 0}, "tle": {"line1": "1 44819U 19082A   25354.92016639  .00000337  00000+0  50464-4 0  9996", "line2": "2 44819  97.8124   0.9864 0001856 193.3668 166.7496 14.80666093327714"}}, "geometry": {"type": "Point", "coordinates": [11.610753793338702, -52.31843884600605]}}, {"type": "Feature", "properties": {"norad_id": 44873, "name": "CSG-1", "group": "resource", "lat": 73.94623336062521, "lon": 25.281954299404592, "alt_km": 614.5037171096783, "timestamp": "2025-12-21T07:34:34.198253+00:00", "meta": {"OBJECT_NAME": "CSG-1", "OBJECT_ID": "2019-092A", "EPOCH": "2025-12-20T23:00:26.787168", "MEAN_MOTION": 14.82150364, "ECCENTRICITY": 0.00014736, "INCLINATION": 97.8803, "RA_OF_ASC_NODE": 176.159, "ARG_OF_PERICENTER": 86.0616, "MEAN_ANOMALY": 274.0765, "EPHEMERIS_TYPE": 0, "CLASSIFICATION_TYPE": "U", "NORAD_CAT_ID": 44873, "ELEMENT_SET_NO": 999, "REV_AT_EPOCH": 32507, "BSTAR": 5.6658261e-05, "MEAN_MOTION_DOT": 3.99e-06, "MEAN_MOTION_DDOT": 0}, "tle": {"line1": "1 44873U 19092A   25354.95864337  .00000399  00000+0  56658-4 0  9995", "line2": "2 44873  97.8803 176.1590 0001473  86.0616 274.0765 14.82150364325076"}}, "geometry": {"type": "Point", "coordinates": [25.281954299404592, 73.94623336062521]}}, {"type": "Feature", "properties": {"norad_id": 46277, "name": "NEMO-HD", "group": "resource", "lat": -76.36499882116708, "lon": -157.20389060750307, "alt_km": 452.83797786545983, "timestamp": "2025-12-21T07:34:34.198262+00:00", "meta": {"OBJECT_NAME": "NEMO-HD", "OBJECT_ID": "2020-061F", "EPOCH": "2025-12-20T22:39:46.745856", "MEAN_MOTION": 15.40482785, "ECCENTRICITY": 0.00013503, "INCLINATION": 97.2201, "RA_OF_ASC_NODE": 53.9383, "ARG_OF_PERICENTER": 52.071, "MEAN_ANOMALY": 308.0659, "EPHEMERIS_TYPE": 0, "CLASSIFICATION_TYPE": "U", "NORAD_CAT_ID": 46277, "ELEMENT_SET_NO": 999, "REV_AT_EPOCH": 29450, "BSTAR": 0.00017904581, "MEAN_MOTION_DOT": 7.175e-05, "MEAN_MOTION_DDOT": 0}, "tle": {"line1": "1 46277U 20061F   25354.94429104  .00007175  00000+0  17905-3 0  9991", "line2": "2 46277  97.2201  53.9383 0001350  52.0710 308.0659 15.40482785294509"}}, "geometry": {"type": "Point", "coordinates": [-157.20389060750307, -76.36499882116708]}}, {"type": "Feature", "properties": {"norad_id": 46984, "name": "SENTINEL-6A", "group": "resource", "lat": 37.59990601971228, "lon": 164.5203565585322, "alt_km": 1338.0612765920969, "timestamp": "2025-12-21T07:34:34.198272+00:00", "meta": {"OBJECT_NAME": "SENTINEL-6A", "OBJECT_ID": "2020-086A", "EPOCH": "2025-12-20T20:06:54.788832", "MEAN_MOTION": 12.80930832, "ECCENTRICITY": 0.0007717, "INCLINATION": 66.0395, "RA_OF_ASC_NODE": 145.4873, "ARG_OF_PERICENTER": 269.3467, "MEAN_ANOMALY": 90.6664, "EPHEMERIS_TYPE": 0, "CLASSIFICATION_TYPE": "U", "NORAD_CAT_ID": 46984, "ELEMENT_SET_NO": 999, "REV_AT_EPOCH": 23748, "BSTAR": -3.5105197e-05, "MEAN_MOTION_DOT": -6.9e-07, "MEAN_MOTION_DDOT": 0}, "tle": {"line1": "1 46984U 20086A   25354.83813413 -.00000069  00000+0 -35105-4 0  9991", "line2": "2 46984  66.0395 145.4873 0007717 269.3467  90.6664 12.80930832237484"}}, "geometry": {"type": "Point", "coordinates": [164.5203565585322, 37.59990601971228]}}, {"type": "Feature", "properties": {"norad_id": 48079, "name": "GAOFEN-12 02", "group": "resource", "lat": -40.63852902336858, "lon": -3.7993921648186917, "alt_km": 635.1579147761977, "timestamp": "2025-12-21T07:34:34.198281+00:00", "meta": {"OBJECT_NAME": "GAOFEN-12 02", "OBJECT_ID": "2021-026A", "EPOCH": "2025-12-20T23:39:08.191872", "MEAN_MOTION": 14.80683978, "ECCENTRICITY": 0.00036014, "INCLINATION": 97.9854, "RA_OF_ASC_NODE": 348.9522, "ARG_OF_PERICENTER": 84.5829, "MEAN_ANOMALY": 275.5794, "EPHEMERIS_TYPE": 0, "CLASSIFICATION_TYPE": "U", "NORAD_CAT_ID": 48079, "ELEMENT_SET_NO": 999, "REV_AT_EPOCH": 25539, "BSTAR": 5.0372884e-05, "MEAN_MOTION_DOT": 3.34e-06, "MEAN_MOTION_DDOT": 0}, "tle": {"line1": "1 48079U 21026A   25354.98551148  .00000334  00000+0  50373-4 0  9990", "line2": "2 48079  97.9854 348.9522 0003601  84.5829 275.5794 14.80683978255398"}}, "geometry": {"type": "Point", "coordinates": [-3.7993921648186917, -40.63852902336858]}}, {"type": "Feature", "properties": {"norad_id": 48268, "name": "PLEIADES NEO 3", "group": "resource", "lat": 55.62879082875646, "lon": 55.928169917575055, "alt_km": 617.9638562690725, "timestamp": "2025-12-21T07:34:34.198290+00:00", "meta": {"OBJECT_NAME": "PLEIADES NEO 3", "OBJECT_ID": "2021-034A", "EPOCH": "2025-12-20T23:13:06.492864", "MEAN_MOTION": 14.81672995, "ECCENTRICITY": 0.00013681, "INCLINATION": 97.8951, "RA_OF_ASC_NODE": 67.2906, "ARG_OF_PERICENTER": 91.725, "MEAN_ANOMALY": 268.4119, "EPHEMERIS_TYPE": 0, "CLASSIFICATION_TYPE": "U", "NORAD_CAT_ID": 48268, "ELEMENT_SET_NO": 999, "REV_AT_EPOCH": 25126, "BSTAR": 4.0689982e-05, "MEAN_MOTION_DOT": 2.68e-06, "MEAN_MOTION_DDOT": 0}, "tle": {"line1": "1 48268U 21034A   25354.96743626  .00000268  00000+0  40690-4 0  9998", "line2": "2 48268  97.8951  67.2906 0001368  91.7250 268.4119 14.81672995251260"}}, "geometry": {"type": "Point", "coordinates": [55.928169917575055, 55.62879082875646]}}, {"type": "Feature", "properties": {"norad_id": 49070, "name": "PLEIADES NEO 4", "group": "resource", "lat": -55.836277872944, "lon": -124.16842416937097, "alt_km": 631.9128050108175, "timestamp": "2025-12-21T07:34:34.198299+00:00", "meta": {"OBJECT_NAME": "PLEIADES NEO 4", "OBJECT_ID": "2021-073E", "EPOCH": "2025-12-20T17:32:43.601280", "MEAN_MOTION": 14.81672177, "ECCENTRICITY": 0.00013249, "INCLINATION": 97.8951, "RA_OF_ASC_NODE": 67.0538, "ARG_OF_PERICENTER": 89.6187, "MEAN_ANOMALY": 270.5178, "EPHEMERIS_TYPE": 0, "CLASSIFICATION_TYPE": "U", "NORAD_CAT_ID": 49070, "ELEMENT_SET_NO": 999, "REV_AT_EPOCH": 23494, "BSTAR": -3.6645539e-05, "MEAN_MOTION_DOT": -3.4e-06, "MEAN_MOTION_DDOT": 0}, "tle": {"line1": "1 49070U 21073E   25354.73106020 -.00000340  00000+0 -36646-4 0  9998", "line2": "2 49070  97.8951  67.0538 0001324  89.6187 270.5178 14.81672177234945"}}, "geometry": {"type": "Point", "coordinates": [-124.16842416937097, -55.836277872944]}}, {"type": "Feature", "properties": {"norad_id": 49260, "name": "LANDSAT 9", "group": "resource", "lat": -35.66050432624843, "lon": -122.64297412410751, "alt_km": 709.2839744402918, "timestamp": "2025-12-21T07:34:34.198308+00:00", "meta": {"OBJECT_NAME": "LANDSAT 9", "OBJECT_ID": "2021-088A", "EPOCH": "2025-12-20T19:03:05.444928", "MEAN_MOTION": 14.57105481, "ECCENTRICITY": 0.00011044, "INCLINATION": 98.2084, "RA_OF_ASC_NODE": 62.7878, "ARG_OF_PERICENTER": 91.462, "MEAN_ANOMALY": 268.6705, "EPHEMERIS_TYPE": 0, "CLASSIFICATION_TYPE": "U", "NORAD_CAT_ID": 49260, "ELEMENT_SET_NO": 999, "REV_AT_EPOCH": 22502, "BSTAR": 7.6270518e-05, "MEAN_MOTION_DOT": 2.98e-06, "MEAN_MOTION_DDOT": 0}, "tle": {"line1": "1 49260U 21088A   25354.79381302  .00000298  00000+0  76271-4 0  9997", "line2": "2 49260  98.2084  62.7878 0001104  91.4620 268.6705 14.57105481225021"}}, "geometry": {"type": "Point", "coordinates": [-122.64297412410751, -35.66050432624843]}}, {"type": "Feature", "properties": {"norad_id": 51444, "name": "CSG-2", "group": "resource", "lat": -73.99655917683582, "lon": -154.61772201800727, "alt_km": 630.8062448815772, "timestamp": "2025-12-21T07:34:34.198317+00:00", "meta": {"OBJECT_NAME": "CSG-2", "OBJECT_ID": "2022-008A", "EPOCH": "2025-12-20T22:11:50.131392", "MEAN_MOTION": 14.82151117, "ECCENTRICITY": 0.00014557, "INCLINATION": 97.8797, "RA_OF_ASC_NODE": 176.1242, "ARG_OF_PERICENTER": 83.6409, "MEAN_ANOMALY": 276.497, "EPHEMERIS_TYPE": 0, "CLASSIFICATION_TYPE": "U", "NORAD_CAT_ID": 51444, "ELEMENT_SET_NO": 999, "REV_AT_EPOCH": 21018, "BSTAR": 6.0013548e-05, "MEAN_MOTION_DOT": 4.26e-06, "MEAN_MOTION_DDOT": 0}, "tle": {"line1": "1 51444U 22008A   25354.92488578  .00000426  00000+0  60014-4 0  9996", "line2": "2 51444  97.8797 176.1242 0001455  83.6409 276.4970 14.82151117210183"}}, "geometry": {"type": "Point", "coordinates": [-154.61772201800727, -73.99655917683582]}}]}